1 08820U 76039A   03297.77034751 -.00000006  00000-0  10000-3 0  9977
2 08820 109.8218 225.9528 0044366 273.7559  85.7932  6.38664470385333
